STARLINK-32479          
1 62148U 24224K   26068.25400864  .00039372  00000+0  14322-2 0  9993
2 62148  42.9968 160.5456 0000372 280.0789  80.0020 15.27590966 72351
HAWK-11B                
1 62379U 24247C   26068.44730104  .00009093  00000+0  32842-3 0  9993
2 62379  45.0161 115.7610 0004690 333.0326  27.0314 15.28847070 67738
